BEIDOU-2 IGSO-1 (C06)   
1 36828U 10036A   25202.96364214 -.00000112  00000+0  00000+0 0  9996
2 36828  54.2804 165.9491 0049280 218.0339  10.3361  1.00266647 54786
BEIDOU-2 G4 (C04)       
1 37210U 10057A   25204.56316339 -.00000125  00000+0  00000+0 0  9992
2 37210   2.8284  70.4038 0005645 169.6161  64.1765  1.00273240 53995
BEIDOU-2 IGSO-2 (C07)   
1 37256U 10068A   25204.52785909 -.00000184  00000+0  00000+0 0  9998
2 37256  48.1386 275.9028 0048303 214.2280 109.3033  1.00277746 53499
BEIDOU-2 IGSO-3 (C08)   
1 37384U 11013A   25202.88422402 -.00000168  00000+0  00000+0 0  9996
2 37384  61.9352  43.2760 0031635 175.5584 145.4678  1.00257424 52342
BEIDOU-2 IGSO-4 (C09)   
1 37763U 11038A   25203.85385645 -.00000063  00000+0  00000+0 0  9993
2 37763  54.5825 168.6244 0144764 231.2507 303.4424  1.00270364 51340
BEIDOU-2 IGSO-5 (C10)   
1 37948U 11073A   25204.66241255 -.00000161  00000+0  00000+0 0  9994
2 37948  48.2755 275.6061 0109731 220.4357 140.1123  1.00279517 49844
BEIDOU-2 G5 (C05)       
1 38091U 12008A   25204.49369862  .00000046  00000+0  00000+0 0  9990
2 38091   2.7515  71.2022 0006172 255.5130 211.1385  1.00270399 49076
BEIDOU-2 M3 (C11)       
1 38250U 12018A   25202.96035091 -.00000094  00000+0  00000+0 0  9996
2 38250  56.0380 315.9879 0022020 265.9831  93.7766  1.86233527 89792
BEIDOU-2 M4 (C12)       
1 38251U 12018B   25202.89276263 -.00000093  00000+0  00000+0 0  9996
2 38251  55.9408 315.2310 0012932 265.4170  94.4475  1.86231921 89798
BEIDOU-2 M6 (C14)       
1 38775U 12050B   25203.14028021 -.00000049  00000+0  00000+0 0  9990
2 38775  56.2498  73.8313 0012809 354.4137   5.6407  1.86230986 87165
BEIDOU-2 G6 (C02)       
1 38953U 12059A   25204.49874573 -.00000189  00000+0  00000+0 0  9992
2 38953   3.5835  76.9802 0008111 320.1418 167.9032  1.00273297 46612
BEIDOU-3S IGSO-1S (C31) 
1 40549U 15019A   25204.65465122 -.00000182  00000+0  00000+0 0  9992
2 40549  49.8166 299.4183 0040999 193.6096 139.1327  1.00269623 37778
BEIDOU-3S M2S (C58)     
1 40748U 15037A   25204.17036787 -.00000090  00000+0  00000+0 0  9999
2 40748  55.1600 313.3559 0010252 250.0843 109.8235  1.86229181 67990
BEIDOU-3S M1S (C57)     
1 40749U 15037B   25203.34564475 -.00000091  00000+0  00000+0 0  9999
2 40749  55.1575 313.3755 0002538  18.3736 341.6513  1.86253803 67986
BEIDOU-3S IGSO-2S (C56) 
1 40938U 15053A   25202.91840509 -.00000093  00000+0  00000+0 0  9996
2 40938  49.7316 262.7070 0060711 190.0441 272.2274  1.00259032 36045
BEIDOU-2 IGSO-6 (C13)   
1 41434U 16021A   25203.01294836 -.00000150  00000+0  00000+0 0  9996
2 41434  59.7618  41.3300 0054182 227.9232 131.1088  1.00280522 34168
BEIDOU-2 G7 (C03)       
1 41586U 16037A   25204.66728475 -.00000365  00000+0  00000+0 0  9992
2 41586   1.8515  69.2911 0008986   9.7792 213.3123  1.00273895  3596
BEIDOU-3 M1 (C19)       
1 43001U 17069A   25203.44285131 -.00000047  00000+0  00000+0 0  9991
2 43001  56.3990  73.9692 0009004 322.0328  37.9737  1.86231187 52461
BEIDOU-3 M2 (C20)       
1 43002U 17069B   25202.84397066 -.00000050  00000+0  00000+0 0  9990
2 43002  56.3974  74.0252 0007871 351.3477   8.7062  1.86230795 52447
BEIDOU-3 M7 (C27)       
1 43107U 18003A   25202.58889953 -.00000092  00000+0  00000+0 0  9993
2 43107  54.6197 313.8249 0004020  92.5127 267.5474  1.86232498 51195
BEIDOU-3 M8 (C28)       
1 43108U 18003B   25202.53261919 -.00000092  00000+0  00000+0 0  9995
2 43108  54.6127 313.8106 0003527 250.8110 109.1650  1.86230919 51208
BEIDOU-3 M4 (C22)       
1 43207U 18018A   25203.51106130 -.00000046  00000+0  00000+0 0  9992
2 43207  56.3578  74.0422 0006962  23.6129 336.4893  1.86231092 50606
BEIDOU-3 M3 (C21)       
1 43208U 18018B   25204.11458543 -.00000043  00000+0  00000+0 0  9995
2 43208  56.3579  74.0263 0007317 340.2703  19.7740  1.86231019 50614
BEIDOU-3 M9 (C29)       
1 43245U 18029A   25202.72087586 -.00000089  00000+0  00000+0 0  9998
2 43245  54.4913 311.4880 0001333 200.3609 159.6514  1.86232524 49749
BEIDOU-3 M10 (C30)      
1 43246U 18029B   25202.65421984 -.00000089  00000+0  00000+0 0  9995
2 43246  54.4892 311.5179 0002895  24.3707 335.6603  1.86229100 49724
BEIDOU-2 IGSO-7 (C16)   
1 43539U 18057A   25202.89613862 -.00000109  00000+0  00000+0 0  9998
2 43539  55.1702 165.9162 0089792 236.5057 329.0183  1.00246208 25814
BEIDOU-3 M5 (C23)       
1 43581U 18062A   25202.34221389  .00000083  00000+0  00000+0 0  9990
2 43581  54.1005 193.5517 0005637 284.8216  75.1177  1.86228548 47475
BEIDOU-3 M6 (C24)       
1 43582U 18062B   25202.74306140  .00000076  00000+0  00000+0 0  9996
2 43582  54.1003 193.5272 0004831   2.7824 357.2196  1.86229519 47484
BEIDOU-3 M12 (C26)      
1 43602U 18067A   25203.21620171  .00000065  00000+0  00000+0 0  9998
2 43602  54.1935 192.2292 0007376  24.0730 335.9550  1.86227659 46972
BEIDOU-3 M11 (C25)      
1 43603U 18067B   25201.20251901  .00000100  00000+0  00000+0 0  9997
2 43603  54.1909 192.2617 0004241   6.8552 353.1552  1.86227145 46966
BEIDOU-3 M13 (C32)      
1 43622U 18072A   25203.30863853 -.00000047  00000+0  00000+0 0  9993
2 43622  56.3300  73.5689 0005733 326.1991  33.8339  1.86231330 46515
BEIDOU-3 M14 (C33)      
1 43623U 18072B   25203.71107169 -.00000045  00000+0  00000+0 0  9998
2 43623  56.3324  73.5493 0004951   5.2735 354.8029  1.86231314 46511
BEIDOU-3 M16 (C35)      
1 43647U 18078A   25203.33354981 -.00000089  00000+0  00000+0 0  9992
2 43647  54.3877 311.5323 0006271  30.6435 329.4116  1.86232142 46011
BEIDOU-3 M15 (C34)      
1 43648U 18078B   25202.92581282 -.00000089  00000+0  00000+0 0  9993
2 43648  54.3836 311.5480 0003213  48.5856 311.4598  1.86232284 46033
BEIDOU-3 G1 (C59)       
1 43683U 18085A   25204.56273422 -.00000290  00000+0  00000+0 0  9990
2 43683   2.7551 107.1602 0003984 358.7215 178.3015  1.00270620 24760
BEIDOU-3 M17 (C36)      
1 43706U 18093A   25203.08179213  .00000070  00000+0  00000+0 0  9999
2 43706  54.1838 193.4944 0010274 287.2570  72.6275  1.86228218 45398
BEIDOU-3 M18 (C37)      
1 43707U 18093B   25201.87001406  .00000091  00000+0  00000+0 0  9996
2 43707  54.1847 193.5274 0008217 313.3936  46.5422  1.86229745 45364
BEIDOU-3 IGSO-1 (C38)   
1 44204U 19023A   25204.43914132 -.00000206  00000+0  00000+0 0  9996
2 44204  58.2302  41.0420 0023709 215.9844 320.9247  1.00286404  3916
BEIDOU-2 G8 (C01)       
1 44231U 19027A   25204.56712981 -.00000259  00000+0  00000+0 0  9990
2 44231   1.7808  75.2163 0003727 245.1533 329.8677  1.00270257 22770
BEIDOU-3 IGSO-2 (C39)   
1 44337U 19035A   25204.30233258 -.00000145  00000+0  00000+0 0  9997
2 44337  55.2157 161.7522 0035477 210.6765 156.5615  1.00259554 22379
BEIDOU-3 M24 (C46)      
1 44542U 19061A   25203.01505842  .00000072  00000+0  00000+0 0  9990
2 44542  54.4115 193.8624 0008287 351.0710   8.9125  1.86229219 39643
BEIDOU-3 M23 (C45)      
1 44543U 19061B   25202.88300345  .00000074  00000+0  00000+0 0  9998
2 44543  54.4101 193.8353 0005753 330.7757 213.4352  1.86229282 39643
BEIDOU-3 IGSO-3 (C40)   
1 44709U 19073A   25203.62661774 -.00000188  00000+0  00000+0 0  9991
2 44709  55.3636 284.4598 0045277 189.7757 170.2258  1.00288020 21158
BEIDOU-3 M22 (C44)      
1 44793U 19078A   25203.39389025 -.00000089  00000+0  00000+0 0  9999
2 44793  54.2341 311.4131 0005239  41.1527 318.9057  1.86232153 38501
BEIDOU-3 M21 (C43)      
1 44794U 19078B   25201.91733778 -.00000089  00000+0  00000+0 0  9994
2 44794  54.2090 311.4326 0003205  37.9104 322.1291  1.86227701 38481
BEIDOU-3 M19 (C41)      
1 44864U 19090A   25204.04210355 -.00000044  00000+0  00000+0 0  9995
2 44864  56.2652  73.6934 0016424 291.8299 247.1155  1.86231494 38108
BEIDOU-3 M20 (C42)      
1 44865U 19090B   25204.48405356 -.00000042  00000+0  00000+0 0  9999
2 44865  56.2672  73.7128 0014276 306.9605 257.9247  1.86231409 38094
BEIDOU-3 G2 (C60)       
1 45344U 20017A   25204.42655179 -.00000152  00000+0  00000+0 0  9999
2 45344   2.9347  41.1864 0001458  88.4490  45.3499  1.00271397 19961
BEIDOU-3 G3 (C61)       
1 45807U 20040A   25204.66728477 -.00000365  00000+0  00000+0 0  9993
2 45807   1.6458  64.8257 0004523 339.9993 247.5075  1.00276645 18775
BEIDOU-3 G4 (C62)       
1 56564U 23066A   25204.55322628 -.00000121  00000+0  00000+0 0  9992
2 56564   1.1390 293.7495 0006550 196.4380 170.4275  1.00269815  8105
BEIDOU-3 M28 (C50)      
1 58654U 23207A   25200.92287102 -.00000056  00000+0  00000+0 0  9992
2 58654  55.4514  73.5375 0002059 353.0951   6.9633  1.86229841 10656
BEIDOU-3 M26 (C48)      
1 58655U 23207B   25202.33263478 -.00000054  00000+0  00000+0 0  9998
2 58655  55.4547  73.4757 0001670 305.0151  55.0339  1.86231551 10663
BEIDOU-3 M25 (C47)      
1 61186U 24168B   25204.36482155 -.00000091  00000+0  00000+0 0  9999
2 61186  54.7635 313.6513 0003725 281.1686 118.8707  1.86229926  5669
BEIDOU-3 M27 (C49)      
1 61187U 24168C   25202.49020045 -.00000092  00000+0  00000+0 0  9999
2 61187  54.7607 313.7004 0000669  22.9001 335.2018  1.86229892  5652
